NORAD_CAT_ID,OBJECT_NAME,OBJECT_TYPE,EPOCH,MEAN_MOTION,ECCENTRICITY,INCLINATION,RA_OF_ASC_NODE,ARG_OF_PERICENTER,MEAN_ANOMALY,BSTAR,MEAN_MOTION_DOT,MEAN_MOTION_DDOT,TLE_LINE0,TLE_LINE1,TLE_LINE2,SEMIMAJOR_AXIS,PERIOD,APOGEE,PERIGEE,DECAYED
53026.0,STARLINK-4119,PAYLOAD,2022-07-12 16:00:00,15.88313368,0.0033081,53.2174,354.5795,54.6682,176.1932,-0.0040389,-0.01192532,0.00040676,0 STARLINK-4119,1 53026U 22076AS  22193.66667824 -.01192532  40676-3 -40389-2 0  9992,2 53026  53.2174 354.5795 0033081  54.6682 176.1932 15.88313368  1303,6685.148,90.662,329.1280000000001,284.898,0.0
53026.0,STARLINK-4119,PAYLOAD,2022-07-13 04:00:00,15.87174709,0.0028266,53.2175,352.0506,56.2653,154.1723,-0.0043342,-0.01192932,0.00040276,0 STARLINK-4119,1 53026U 22076AS  22194.16667824 -.01192932  40276-3 -43342-2 0  9990,2 53026  53.2175 352.0506 0028266  56.2653 154.1723 15.87174709  1376,6688.345,90.727,329.116,291.305,0.0
53026.0,STARLINK-4119,PAYLOAD,2022-07-13 14:00:01,15.86197369,0.0024627,53.2177,349.9476,55.1742,16.684,-0.0043604,-0.01134664,0.00036446,0 STARLINK-4119,1 53026U 22076AS  22194.58334491 -.01134664  36446-3 -43604-2 0  9990,2 53026  53.2177 349.9476 0024627  55.1742  16.6840 15.86197369  1304,6691.092,90.783,329.436,296.4790000000001,0.0
53026.0,STARLINK-4119,PAYLOAD,2022-07-13 22:00:00,15.85451806,0.0021628,53.2173,348.2681,53.8944,122.0604,-0.0046638,-0.01044307,0.0,0 STARLINK-4119,1 53026U 22076AS  22194.91667824 -.01044307  00000-0 -46638-2 0  9994,2 53026  53.2173 348.2681 0021628  53.8944 122.0604 15.85451806  1495,6693.19,90.826,329.531,300.579,0.0
53026.0,STARLINK-4119,PAYLOAD,2022-07-14 14:00:01,15.83929677,0.0015232999999999,53.2175,344.9114,52.9347,328.4884,-0.0050424,-0.01036315,0.0,0 STARLINK-4119,1 53026U 22076AS  22195.58334491 -.01036315  00000-0 -50424-2 0  9997,2 53026  53.2175 344.9114 0015233  52.9347 328.4884 15.83929677  1602,6697.477,90.913,329.5440000000001,309.14,0.0
53026.0,STARLINK-4119,PAYLOAD,2022-07-14 22:00:00,15.83163323,0.0012261,53.2172,343.2375,52.7428,70.0461,-0.005175,-0.01022168,0.0,0 STARLINK-4119,1 53026U 22076AS  22195.91667824 -.01022168  00000-0 -51750-2 0  9997,2 53026  53.2172 343.2375 0012261  52.7428  70.0461 15.83163323  1302,6699.638000000001,90.957,329.718,313.289,0.0
53026.0,STARLINK-4119,PAYLOAD,2022-07-15 14:00:01,15.81666709,0.0006792,53.2176,339.8922,42.7048,280.0677,-0.0058097,-0.01057689,0.0,0 STARLINK-4119,1 53026U 22076AS  22196.58334491 -.01057689  00000-0 -58097-2 0  9999,2 53026  53.2176 339.8922 0006792  42.7048 280.0677 15.81666709  1760,6703.864000000001,91.043,330.282,321.176,0.0
53026.0,STARLINK-4119,PAYLOAD,2022-07-15 22:00:00,15.80889682,0.0004428999999999,53.2171,338.2235,27.7942,33.6101,-0.0058368,-0.01026472,0.0,0 STARLINK-4119,1 53026U 22076AS  22196.91667824 -.01026472  00000-0 -58368-2 0  9992,2 53026  53.2171 338.2235 0004429  27.7942  33.6101 15.80889682  1306,6706.06,91.088,330.896,324.955,0.0
53026.0,STARLINK-4119,PAYLOAD,2022-07-16 14:00:01,15.79379517,0.0003319,53.2174,334.8899,6.4181,249.4978,-0.0063598,-0.01058233,0.0,0 STARLINK-4119,1 53026U 22076AS  22197.58334491 -.01058233  00000-0 -63598-2 0  9998,2 53026  53.2174 334.8899 0003319   6.4181 249.4978 15.79379517  1929,6710.335,91.175,334.427,329.972,0.0
53026.0,STARLINK-4119,PAYLOAD,2022-07-16 22:00:00,15.78621728,0.0002973,53.2172,333.2267,6.647,345.156,-0.0065926999999999,-0.01059321,0.0,0 STARLINK-4119,1 53026U 22076AS  22197.91667824 -.01059321  00000-0 -65927-2 0  9991,2 53026  53.2172 333.2267 0002973   6.6470 345.1560 15.78621728  1303,6712.482,91.219,336.342,332.351,0.0
53026.0,STARLINK-4119,PAYLOAD,2022-07-17 06:00:00,15.77859186,0.000298,53.2175,331.5627,8.4202,78.3612,-0.0067998999999999,-0.01055845,0.0,0 STARLINK-4119,1 53026U 22076AS  22198.25001157 -.01055845  00000-0 -67999-2 0  9998,2 53026  53.2175 331.5627 0002980   8.4202  78.3612 15.77859186  2021,6714.644,91.263,338.51,334.5080000000001,0.0
53026.0,STARLINK-4119,PAYLOAD,2022-07-17 14:00:01,15.77098894,0.0003435,53.2176,329.9042,7.5565,173.2869,-0.0070188999999999,-0.01053672,0.0,0 STARLINK-4119,1 53026U 22076AS  22198.58334491 -.01053672  00000-0 -70189-2 0  9995,2 53026  53.2176 329.9042 0003435   7.5565 173.2869 15.77098894  1302,6716.802,91.307,340.974,336.36,0.0
53026.0,STARLINK-4119,PAYLOAD,2022-07-17 22:00:00,15.76344122,0.0003323,53.2171,328.2463,5.4908,268.5007,-0.0073125,-0.01060518,0.0,0 STARLINK-4119,1 53026U 22076AS  22198.91667824 -.01060518  00000-0 -73125-2 0  9991,2 53026  53.2171 328.2463 0003323   5.4908 268.5007 15.76344122  1309,6718.946,91.351,343.0440000000001,338.5780000000001,0.0
53026.0,STARLINK-4119,PAYLOAD,2022-07-18 06:00:00,15.75580083,0.0001445,53.2172,326.5882,20.4532,345.7793,-0.0075188,-0.01053848,0.0,0 STARLINK-4119,1 53026U 22076AS  22199.25001157 -.01053848  00000-0 -75188-2 0  9999,2 53026  53.2172 326.5882 0001445  20.4532 345.7793 15.75580083  2183,6721.118,91.395,343.954,342.01199999999994,0.0
53026.0,STARLINK-4119,PAYLOAD,2022-07-18 14:00:01,15.748222699999998,0.0001727,53.2173,324.9356,32.3903,65.165,-0.0077837,-0.0105515,0.0,0 STARLINK-4119,1 53026U 22076AS  22199.58334491 -.01055150  00000-0 -77837-2 0  9996,2 53026  53.2173 324.9356 0001727  32.3903  65.1650 15.74822270  1303,6723.274,91.439,346.3,343.978,0.0
53026.0,STARLINK-4119,PAYLOAD,2022-07-18 22:00:00,15.73962925,0.0001702,53.2172,323.283,36.7536,151.232,-0.0059098,-0.00782388,0.0,0 STARLINK-4119,1 53026U 22076AS  22199.91667824 -.00782388  00000-0 -59098-2 0  9990,2 53026  53.2172 323.2830 0001702  36.7536 151.2320 15.73962925  1306,6725.721,91.489,348.731,346.441,0.0
53026.0,STARLINK-4119,PAYLOAD,2022-07-19 06:00:00,15.73280803,0.0001283,53.2174,321.6304,76.7124,200.7883,-0.0008777999999999,-0.00122458,0.0,0 STARLINK-4119,1 53026U 22076AS  22200.25001157 -.00122458  00000-0 -87780-3 0  9997,2 53026  53.2174 321.6304 0001283  76.7124 200.7883 15.73280803  2344,6727.665,91.528,350.39300000000014,348.667,0.0
53026.0,STARLINK-4119,PAYLOAD,2022-07-19 14:00:01,15.73204889,0.0001460999999999,53.2175,319.9826,47.2328,319.2376,-6.145299999999999e-06,-1.483e-05,0.0,0 STARLINK-4119,1 53026U 22076AS  22200.58334491 -.00001483  00000-0 -61453-5 0  9998,2 53026  53.2175 319.9826 0001461  47.2328 319.2376 15.73204889  2399,6727.880999999999,91.533,350.72900000000016,348.76300000000015,0.0
53026.0,STARLINK-4119,PAYLOAD,2022-07-19 22:00:00,15.73205593,0.0001424,53.2172,318.3329,46.5351,48.8695,-1.4357e-05,-2.635e-05,0.0,0 STARLINK-4119,1 53026U 22076AS  22200.91667824 -.00002635  00000-0 -14357-4 0  9994,2 53026  53.2172 318.3329 0001424  46.5351  48.8695 15.73205593  1306,6727.879,91.533,350.702,348.786,0.0
53026.0,STARLINK-4119,PAYLOAD,2022-07-20 04:00:00,15.733043900000002,0.0001440999999999,53.2188,317.0995,48.3442,23.7376,-4.5063e-05,-6.968e-05,0.0,0 STARLINK-4119,1 53026U 22076AS  22201.16667824 -.00006968  00000-0 -45063-4 0  9993,2 53026  53.2188 317.0995 0001441  48.3442  23.7376 15.73304390  2481,6727.598000000001,91.527,350.432,348.49300000000005,0.0
53026.0,STARLINK-4119,PAYLOAD,2022-07-20 14:00:01,15.73291423,0.0001595,53.2188,315.039,42.7089,230.6862,-0.00058166,-0.00081784,0.0,0 STARLINK-4119,1 53026U 22076AS  22201.58334491 -.00081784  00000-0 -58166-3 0  9996,2 53026  53.2188 315.0390 0001595  42.7089 230.6862 15.73291423  1304,6727.635,91.528,350.5730000000001,348.426,0.0
53026.0,STARLINK-4119,PAYLOAD,2022-07-20 22:00:01,15.73239109,0.0001645,53.2189,313.3892,39.6802,322.7564,-0.0014558,-0.00200485,0.0,0 STARLINK-4119,1 53026U 22076AS  22201.91668981 -.00200485  00000-0 -14558-2 0  9994,2 53026  53.2189 313.3892 0001645  39.6802 322.7564 15.73239109  1302,6727.784000000002,91.531,350.755,348.542,0.0
53026.0,STARLINK-4119,PAYLOAD,2022-07-21 06:00:00,15.73069705,0.0001744,53.219,311.7383,51.5708,39.6793,0.00058048,0.00081183,0.0,0 STARLINK-4119,1 53026U 22076AS  22202.25001157  .00081183  00000-0  58048-3 0  9991,2 53026  53.2190 311.7383 0001744  51.5708  39.6793 15.73069705  2659,6728.267,91.541,351.305,348.958,0.0
53026.0,STARLINK-4119,PAYLOAD,2022-07-21 14:00:01,15.73120314,0.0001969,53.2187,310.091,45.56,134.5644,0.00023284,0.00032072,0.0,0 STARLINK-4119,1 53026U 22076AS  22202.58335648  .00032072  00000-0  23284-3 0  9999,2 53026  53.2187 310.0910 0001969  45.5600 134.5644 15.73120314  1301,6728.121999999999,91.538,351.31199999999984,348.663,0.0
53026.0,STARLINK-4119,PAYLOAD,2022-07-21 22:00:00,15.73168294,0.0001915,53.2182,308.4413,44.7194,224.1789,6.1621e-05,8.024e-05,0.0,0 STARLINK-4119,1 53026U 22076AS  22202.91667824  .00008024  00000-0  61621-4 0  9998,2 53026  53.2182 308.4413 0001915  44.7194 224.1789 15.73168294  2761,6727.986,91.535,351.139,348.56199999999984,0.0
53026.0,STARLINK-4119,PAYLOAD,2022-07-22 06:00:00,15.73171162,0.0001810999999999,53.2185,306.7904,50.7388,307.0611,0.00058112,0.00081633,0.0,0 STARLINK-4119,1 53026U 22076AS  22203.25001157  .00081633  00000-0  58112-3 0  9994,2 53026  53.2185 306.7904 0001811  50.7388 307.0611 15.73171162  1309,6727.977,91.535,351.061,348.624,0.0
53026.0,STARLINK-4119,PAYLOAD,2022-07-22 12:00:00,15.73224551,0.0001943999999999,53.2186,305.5547,46.0438,288.4443,0.000106,0.00014297,0.0,0 STARLINK-4119,1 53026U 22076AS  22203.50001157  .00014297  00000-0  10600-3 0  9994,2 53026  53.2186 305.5547 0001944  46.0438 288.4443 15.73224551  2858,6727.825,91.532,350.99800000000016,348.38199999999995,0.0
53026.0,STARLINK-4119,PAYLOAD,2022-07-22 22:00:00,15.73309491,0.0001943,53.2188,303.4928,42.0578,133.668,-0.0002726,-0.00038885,0.0,0 STARLINK-4119,1 53026U 22076AS  22203.91667824 -.00038885  00000-0 -27260-3 0  9999,2 53026  53.2188 303.4928 0001943  42.0578 133.6680 15.73309491  2918,6727.583000000001,91.527,350.755,348.141,0.0
53026.0,STARLINK-4119,PAYLOAD,2022-07-23 14:00:01,15.73198816,0.0002165,53.2187,300.1943,42.4056,311.397,-0.00021924,-0.00031277,0.0,0 STARLINK-4119,1 53026U 22076AS  22204.58335648 -.00031277  00000-0 -21924-3 0  9998,2 53026  53.2187 300.1943 0002165  42.4056 311.3970 15.73198816  1306,6727.899,91.533,351.22,348.307,0.0
